NORAD_CAT_ID,OBJECT_NAME,OBJECT_TYPE,EPOCH,MEAN_MOTION,ECCENTRICITY,INCLINATION,RA_OF_ASC_NODE,ARG_OF_PERICENTER,MEAN_ANOMALY,BSTAR,MEAN_MOTION_DOT,MEAN_MOTION_DDOT,TLE_LINE0,TLE_LINE1,TLE_LINE2,SEMIMAJOR_AXIS,PERIOD,APOGEE,PERIGEE,DECAYED
55747.0,STARLINK-5539,PAYLOAD,2024-07-09 03:21:29,14.98342338,0.0002909,70.0014,338.8923,263.0448,97.038,-0.00020069,-2.487e-05,0.0,0 STARLINK-5539,1 55747U 23028G   24191.13992508 -.00002487  00000-0 -20069-3 0  9990,2 55747  70.0014 338.8923 0002909 263.0448  97.0380 14.98342338 74884,6950.155,96.106,574.042,569.998,0.0
55747.0,STARLINK-5539,PAYLOAD,2024-07-09 12:58:18,14.98331566,0.0002941,70.001,337.882,268.0646,92.0176,4.1675e-05,4.04e-06,0.0,0 STARLINK-5539,1 55747U 23028G   24191.54048782  .00000404  00000-0  41675-4 0  9993,2 55747  70.0010 337.8820 0002941 268.0646  92.0176 14.98331566 74942,6950.188,96.107,574.097,570.009,0.0
55747.0,STARLINK-5539,PAYLOAD,2024-07-09 14:34:26,14.9833166,0.000294,70.0011,337.7137,268.0295,92.0527,4.0622e-05,3.92e-06,0.0,0 STARLINK-5539,1 55747U 23028G   24191.60724777  .00000392  00000-0  40622-4 0  9992,2 55747  70.0011 337.7137 0002940 268.0295  92.0527 14.98331660 74958,6950.188,96.107,574.096,570.009,0.0
55747.0,STARLINK-5539,PAYLOAD,2024-07-09 19:22:50,14.98332257,0.000291,70.0012,337.2088,266.6707,93.4119,4.9646e-05,4.99e-06,0.0,0 STARLINK-5539,1 55747U 23028G   24191.80752704  .00000499  00000-0  49646-4 0  9998,2 55747  70.0012 337.2088 0002910 266.6707  93.4119 14.98332257 74986,6950.186,96.107,574.073,570.028,0.0
55747.0,STARLINK-5539,PAYLOAD,2024-07-10 11:24:11,14.98326606,0.0002982,70.0011,335.5246,270.6131,89.4687,3.4623e-05,3.2e-06,0.0,0 STARLINK-5539,1 55747U 23028G   24192.47513142  .00000320  00000-0  34623-4 0  9995,2 55747  70.0011 335.5246 0002982 270.6131  89.4687 14.98326606 75085,6950.203,96.107,574.141,569.996,0.0
55747.0,STARLINK-5539,PAYLOAD,2024-07-11 14:38:27,14.9833478,0.0002955,70.0014,332.6636,272.301,87.781,9.2862e-05,1.015e-05,0.0,0 STARLINK-5539,1 55747U 23028G   24193.61004422  .00001015  00000-0  92862-4 0  9999,2 55747  70.0014 332.6636 0002955 272.3010  87.7810 14.98334780 75254,6950.178,96.107,574.097,569.989,0.0
55747.0,STARLINK-5539,PAYLOAD,2024-07-12 14:40:28,14.98332893,0.0002815,70.0015,330.1384,271.4006,88.6831,5.0122e-05,5.05e-06,0.0,0 STARLINK-5539,1 55747U 23028G   24194.61144485  .00000505  00000-0  50122-4 0  9990,2 55747  70.0015 330.1384 0002815 271.4006  88.6831 14.98332893 75401,6950.184,96.107,574.005,570.092,0.0
55747.0,STARLINK-5539,PAYLOAD,2024-07-12 19:28:52,14.98333382,0.0002834,70.0017,329.6333,273.9282,86.1553,8.2408e-05,8.91e-06,0.0,0 STARLINK-5539,1 55747U 23028G   24194.81172365  .00000891  00000-0  82408-4 0  9990,2 55747  70.0017 329.6333 0002834 273.9282  86.1553 14.98333382 75435,6950.182,96.107,574.017,570.078,0.0
55747.0,STARLINK-5539,PAYLOAD,2024-07-13 14:42:29,14.98332509,0.0002817,70.0017,327.6139,267.8179,92.2658,-2.804e-05,-4.28e-06,0.0,0 STARLINK-5539,1 55747U 23028G   24195.61284547 -.00000428  00000-0 -28040-4 0  9995,2 55747  70.0017 327.6139 0002817 267.8179  92.2658 14.98332509 75552,6950.185,96.107,574.008,570.092,0.0
55747.0,STARLINK-5539,PAYLOAD,2024-07-13 17:54:46,14.98331433,0.0002842,70.0018,327.2777,267.8016,92.2818,-3.8589e-05,-5.53e-06,0.0,0 STARLINK-5539,1 55747U 23028G   24195.74636623 -.00000553  00000-0 -38589-4 0  9993,2 55747  70.0018 327.2777 0002842 267.8016  92.2818 14.98331433 75570,6950.188,96.107,574.029,570.078,0.0
55747.0,STARLINK-5539,PAYLOAD,2024-07-14 01:55:26,14.98331342,0.0002913,70.0017,326.4362,269.0752,91.0073,1.4391e-05,7.9e-07,0.0,0 STARLINK-5539,1 55747U 23028G   24196.08016489  .00000079  00000-0  14391-4 0  9999,2 55747  70.0017 326.4362 0002913 269.0752  91.0073 14.98331342 75625,6950.189,96.107,574.078,570.029,0.0
55747.0,STARLINK-5539,PAYLOAD,2024-07-14 14:44:30,14.98332727,0.0002919,70.0017,325.0898,268.6771,91.4053,5.5841e-05,5.73e-06,0.0,0 STARLINK-5539,1 55747U 23028G   24196.61424280  .00000573  00000-0  55841-4 0  9994,2 55747  70.0017 325.0898 0002919 268.6771  91.4053 14.98332727 75705,6950.184,96.107,574.078,570.021,0.0
55747.0,STARLINK-5539,PAYLOAD,2024-07-14 17:56:46,14.98334399,0.0002911,70.0017,324.7531,268.8615,91.221,7.3536e-05,7.85e-06,0.0,0 STARLINK-5539,1 55747U 23028G   24196.74776118  .00000785  00000-0  73536-4 0  9994,2 55747  70.0017 324.7531 0002911 268.8615  91.2210 14.98334399 75728,6950.179,96.107,574.067,570.021,0.0
55747.0,STARLINK-5539,PAYLOAD,2024-07-15 01:57:27,14.98329383,0.0002897,70.0016,323.9115,269.2844,90.7983,-1.2299e-05,-2.4e-06,0.0,0 STARLINK-5539,1 55747U 23028G   24197.08156633 -.00000240  00000-0 -12299-4 0  9993,2 55747  70.0016 323.9115 0002897 269.2844  90.7983 14.98329383 75771,6950.195,96.107,574.073,570.046,0.0
55747.0,STARLINK-5539,PAYLOAD,2024-07-15 14:46:31,14.98327597,0.0003073,70.0013,322.5649,269.5378,90.5429,6.7828e-05,7.16e-06,0.0,0 STARLINK-5539,1 55747U 23028G   24197.61564627  .00000716  00000-0  67828-4 0  9992,2 55747  70.0013 322.5649 0003073 269.5378  90.5429 14.98327597 75854,6950.2,96.107,574.201,569.93,0.0
55747.0,STARLINK-5539,PAYLOAD,2024-07-15 17:58:47,14.98331622,0.0003013,70.0014,322.2274,266.286,93.7955,0.00010726,1.187e-05,0.0,0 STARLINK-5539,1 55747U 23028G   24197.74916247  .00001187  00000-0  10726-3 0  9992,2 55747  70.0014 322.2274 0003013 266.2860  93.7955 14.98331622 75875,6950.188,96.107,574.147,569.959,0.0
55747.0,STARLINK-5539,PAYLOAD,2024-07-16 01:59:28,14.98331737,0.0003144,70.0013,321.3835,269.831,90.2489,3.2237e-05,2.92e-06,0.0,0 STARLINK-5539,1 55747U 23028G   24198.08296306  .00000292  00000-0  32237-4 0  9995,2 55747  70.0013 321.3835 0003144 269.8310  90.2489 14.98331737 75928,6950.188,96.107,574.238,569.867,0.0
55747.0,STARLINK-5539,PAYLOAD,2024-07-16 14:48:32,14.98333355,0.0002924,70.0013,320.0382,266.8876,93.1949,4.9259e-05,4.95e-06,0.0,0 STARLINK-5539,1 55747U 23028G   24198.61704168  .00000495  00000-0  49259-4 0  9991,2 55747  70.0013 320.0382 0002924 266.8876  93.1949 14.98333355 76001,6950.183,96.107,574.08,570.015,0.0
55747.0,STARLINK-5539,PAYLOAD,2024-07-16 16:24:40,14.98336639,0.0002884,70.0017,319.8707,270.8706,89.2123,7.6487e-05,8.2e-06,0.0,0 STARLINK-5539,1 55747U 23028G   24198.68379878  .00000820  00000-0  76487-4 0  9999,2 55747  70.0017 319.8707 0002884 270.8706  89.2123 14.98336639 76013,6950.172,96.107,574.042,570.033,0.0
55747.0,STARLINK-5539,PAYLOAD,2024-07-17 11:38:17,14.98322582,0.0002838,70.0033,317.8572,254.8128,105.2718,2.5642e-06,-6.2e-07,0.0,0 STARLINK-5539,1 55747U 23028G   24199.48493054 -.00000062  00000-0  25642-5 0  9998,2 55747  70.0033 317.8572 0002838 254.8128 105.2718 14.98322582 76132,6950.216,96.107,574.053,570.108,0.0
55747.0,STARLINK-5539,PAYLOAD,2024-07-17 14:50:34,14.98318984,0.0003225,70.0029,317.5209,267.6719,92.4071,5.4531e-05,5.58e-06,0.0,0 STARLINK-5539,1 55747U 23028G   24199.61845236  .00000558  00000-0  54531-4 0  9993,2 55747  70.0029 317.5209 0003225 267.6719  92.4071 14.98318984 76152,6950.227,96.108,574.333,569.851,0.0
55747.0,STARLINK-5539,PAYLOAD,2024-07-17 18:02:49,14.98331141,0.0003043,70.001,317.1785,269.7361,90.345,-1.8584e-06,-1.15e-06,0.0,0 STARLINK-5539,1 55747U 23028G   24199.75196661 -.00000115  00000-0 -18584-5 0  9999,2 55747  70.0010 317.1785 0003043 269.7361  90.3450 14.98331141 76171,6950.189,96.107,574.169,569.939,0.0
55747.0,STARLINK-5539,PAYLOAD,2024-07-18 13:16:26,14.98330027,0.0002792,70.0016,315.1594,271.2848,88.7991,3.1885e-05,2.88e-06,0.0,0 STARLINK-5539,1 55747U 23028G   24200.55308856  .00000288  00000-0  31885-4 0  9998,2 55747  70.0016 315.1594 0002792 271.2848  88.7991 14.98330027 76297,6950.193,96.107,573.998,570.117,0.0
55747.0,STARLINK-5539,PAYLOAD,2024-07-18 18:04:50,14.98335742,0.0002744,70.0016,314.6549,265.7143,94.3703,7.6853e-05,8.24e-06,0.0,0 STARLINK-5539,1 55747U 23028G   24200.75336358  .00000824  00000-0  76853-4 0  9998,2 55747  70.0016 314.6549 0002744 265.7143  94.3703 14.98335742 76321,6950.175,96.107,573.947,570.133,0.0
55747.0,STARLINK-5539,PAYLOAD,2024-07-19 13:18:27,14.98333026,0.0002762,70.0017,312.6349,266.2253,93.8591,0.00012284,1.373e-05,0.0,0 STARLINK-5539,1 55747U 23028G   24201.55448396  .00001373  00000-0  12284-3 0  9990,2 55747  70.0017 312.6349 0002762 266.2253  93.8591 14.98333026 76441,6950.184,96.107,573.968,570.129,0.0
55747.0,STARLINK-5539,PAYLOAD,2024-07-19 16:30:43,14.9833595,0.0002696,70.0018,312.2984,265.7267,94.3584,0.00016327,1.856e-05,0.0,0 STARLINK-5539,1 55747U 23028G   24201.68800117  .00001856  00000-0  16327-3 0  9995,2 55747  70.0018 312.2984 0002696 265.7267  94.3584 14.98335950 76466,6950.174,96.107,573.913,570.166,0.0
55747.0,STARLINK-5539,PAYLOAD,2024-07-20 00:31:23,14.9834031,0.0002747,70.0019,311.4551,271.0951,88.9893,-1.3462e-05,-2.54e-06,0.0,0 STARLINK-5539,1 55747U 23028G   24202.02180136 -.00000254  00000-0 -13462-4 0  9997,2 55747  70.0019 311.4551 0002747 271.0951  88.9893 14.98340310 76519,6950.161,96.106,573.935,570.117,0.0
55747.0,STARLINK-5539,PAYLOAD,2024-07-20 13:20:28,14.98327813,0.0002919,70.0018,310.1106,272.8217,87.2608,3.6065e-05,3.37e-06,0.0,0 STARLINK-5539,1 55747U 23028G   24202.55588948  .00000337  00000-0  36065-4 0  9992,2 55747  70.0018 310.1106 0002919 272.8217  87.2608 14.98327813 76592,6950.2,96.107,574.093,570.036,0.0
55747.0,STARLINK-5539,PAYLOAD,2024-07-20 16:32:44,14.98329121,0.0002889,70.0015,309.7735,272.6808,87.4021,3.3013e-05,3.01e-06,0.0,0 STARLINK-5539,1 55747U 23028G   24202.68940849  .00000301  00000-0  33013-4 0  9999,2 55747  70.0015 309.7735 0002889 272.6808  87.4021 14.98329121 76619,6950.196,96.107,574.069,570.053,0.0
55747.0,STARLINK-5539,PAYLOAD,2024-07-21 14:58:37,14.98337094,0.0002895,70.001,307.4152,267.4627,92.62,4.6299e-05,4.6e-06,0.0,0 STARLINK-5539,1 55747U 23028G   24203.62404164  .00000460  00000-0  46299-4 0  9995,2 55747  70.0010 307.4152 0002895 267.4627  92.6200 14.98337094 76750,6950.171,96.107,574.048,570.024,0.0
